YAOGAN-7                
1 36110U 09069A   26062.13482942  .00000889  00000+0  13027-3 0  9994
2 36110  98.0224 308.5773 0025264  24.2142 336.0250 14.77878934873965
XIWANG-1 (HOPE-1)       
1 36122U 09072B   26062.14904652  .00000315  00000+0  93977-3 0  9995
2 36122 100.3900  17.7346 0008039 113.5613 246.6345 13.16437070779057
RADUGA-1M 2             
1 36358U 10002A   26062.14975223 -.00000007  00000+0  00000+0 0  9993
2 36358   3.3446  80.1908 0008558 248.3904 333.0769  0.98964087 48979
COSMOS 2463             
1 36519U 10017A   26062.13770495  .00000071  00000+0  61473-4 0  9997
2 36519  82.9641 327.6438 0037417  65.1521  45.3967 13.71657208793396
CARTOSAT-2B             
1 36795U 10035A   26062.16512882  .00000439  00000+0  66661-4 0  9992
2 36795  97.8459 113.5909 0011575 169.6117 190.5336 14.78693355844185
AISSAT 1                
1 36797U 10035C   26062.14180215  .00002626  00000+0  23442-3 0  9992
2 36797  98.1048 317.6236 0010459  53.0064 307.2112 14.96848593848350
TISAT 1                 
1 36799U 10035E   26061.81287160  .00025810  00000+0  96804-3 0  9996
2 36799  98.0646 359.3470 0000179 143.8613 216.2636 15.27224236851445
YAOGAN-10               
1 36834U 10038A   26062.23937699  .00003404  00000+0  40551-3 0  9998
2 36834  97.9086  86.4604 0001732  90.8193 335.4425 14.84985123841482
SHIJIAN-6 04B (SJ-6 04B)
1 37180U 10051B   26062.16848226  .00002095  00000+0  17745-3 0  9991
2 37180  97.8743  66.4888 0008862 320.5249  39.5327 14.99100165839799
FENGYUN 3B              
1 37214U 10059A   26062.22855655 -.00000162  00000+0 -60657-4 0  9994
2 37214  98.9784 107.7260 0022964 125.5929 314.2137 14.14814579792444
COSMO-SKYMED 4          
1 37216U 10060A   26062.18217502  .00000203  00000+0  32114-4 0  9997
2 37216  97.8854 247.3125 0001358  84.2289 275.9079 14.82150033828864
O/OREOS (USA 219)       
1 37224U 10062C   26062.09954628  .00002990  00000+0  29097-3 0  9995
2 37224  71.9727 320.5587 0016930 267.7511  92.1721 14.93236806100804
ELEKTRO-L 1 (GOMS 2)    
1 37344U 11001A   26061.85954840 -.00000277  00000+0  00000+0 0  9997
2 37344   9.4457  55.5723 0003189   9.8812 335.3496  1.00174747 55417
RESOURCESAT-2           
1 37387U 11015A   26062.16606934 -.00000199  00000+0 -70904-4 0  9991
2 37387  98.7733 130.2943 0006217 156.0762 204.0705 14.21489972771114
YOUTHSAT                
1 37388U 11015B   26061.96701522  .00000288  00000+0  13894-3 0  9999
2 37388  98.3581  40.8717 0013419 296.4152 133.4602 14.25577401772505
APRIZESAT 6             
1 37793U 11044F   26061.70533803  .00001149  00000+0  16931-3 0  9990
2 37793  98.2424 330.0133 0044532  67.2556 346.7978 14.76733859781432
JUGNU                   
1 37839U 11058B   26061.80329812  .00000502  00000+0  12266-3 0  9999
2 37839  19.9596 234.7346 0018632 341.6497 143.8293 14.13737032743953
